CCSDS_OMM_VERS = 2.0
CREATION_DATE  = 
ORIGINATOR     = 

OBJECT_NAME    = YOTSUBA-KULOVER
OBJECT_ID      = 1998-067XN
CENTER_NAME    = EARTH
REF_FRAME      = TEME
TIME_SYSTEM    = UTC
MEAN_ELEMENT_THEORY = SGP/SGP4

EPOCH          = 2026-02-17T07:04:08.726016
MEAN_MOTION    = 15.73292951
ECCENTRICITY   = .00049405
INCLINATION    = 51.6249
RA_OF_ASC_NODE = 162.4501
ARG_OF_PERICENTER = 319.7640
MEAN_ANOMALY   = 40.2992

EPHEMERIS_TYPE = 0
CLASSIFICATION_TYPE = U
NORAD_CAT_ID   = 65941
ELEMENT_SET_NO = 999
REV_AT_EPOCH   = 2028
BSTAR          = .10587789E-2
MEAN_MOTION_DOT = .151622E-2
MEAN_MOTION_DDOT = 0

CCSDS_OMM_VERS = 2.0
CREATION_DATE  = 
ORIGINATOR     = 

OBJECT_NAME    = BOTAN
OBJECT_ID      = 1998-067XP
CENTER_NAME    = EARTH
REF_FRAME      = TEME
TIME_SYSTEM    = UTC
MEAN_ELEMENT_THEORY = SGP/SGP4

EPOCH          = 2026-02-17T06:33:42.738912
MEAN_MOTION    = 15.91598962
ECCENTRICITY   = .00090001
INCLINATION    = 51.6160
RA_OF_ASC_NODE = 157.7353
ARG_OF_PERICENTER = 339.1028
MEAN_ANOMALY   = 20.9609

EPHEMERIS_TYPE = 0
CLASSIFICATION_TYPE = U
NORAD_CAT_ID   = 65942
ELEMENT_SET_NO = 999
REV_AT_EPOCH   = 2034
BSTAR          = .14794116E-2
MEAN_MOTION_DOT = .491628E-2
MEAN_MOTION_DDOT = .10444248E-3

CCSDS_OMM_VERS = 2.0
CREATION_DATE  = 
ORIGINATOR     = 

OBJECT_NAME    = E-KAGAKU-1
OBJECT_ID      = 1998-067XQ
CENTER_NAME    = EARTH
REF_FRAME      = TEME
TIME_SYSTEM    = UTC
MEAN_ELEMENT_THEORY = SGP/SGP4

EPOCH          = 2026-02-17T07:06:16.795008
MEAN_MOTION    = 15.73144865
ECCENTRICITY   = .00049528
INCLINATION    = 51.6273
RA_OF_ASC_NODE = 162.4733
ARG_OF_PERICENTER = 332.5511
MEAN_ANOMALY   = 27.5225

EPHEMERIS_TYPE = 0
CLASSIFICATION_TYPE = U
NORAD_CAT_ID   = 65943
ELEMENT_SET_NO = 999
REV_AT_EPOCH   = 2028
BSTAR          = .10540822E-2
MEAN_MOTION_DOT = .14996E-2
MEAN_MOTION_DDOT = 0

CCSDS_OMM_VERS = 2.0
CREATION_DATE  = 
ORIGINATOR     = 

OBJECT_NAME    = HRC MONOBLOCK CAMERA
OBJECT_ID      = 1998-067XR
CENTER_NAME    = EARTH
REF_FRAME      = TEME
TIME_SYSTEM    = UTC
MEAN_ELEMENT_THEORY = SGP/SGP4

EPOCH          = 2026-02-16T13:46:57.038592
MEAN_MOTION    = 15.59974289
ECCENTRICITY   = .0002145
INCLINATION    = 51.6281
RA_OF_ASC_NODE = 171.9106
ARG_OF_PERICENTER = 13.3366
MEAN_ANOMALY   = 346.7683

EPHEMERIS_TYPE = 0
CLASSIFICATION_TYPE = U
NORAD_CAT_ID   = 66052
ELEMENT_SET_NO = 999
REV_AT_EPOCH   = 1909
BSTAR          = .59582E-3
MEAN_MOTION_DOT = .48848E-3
MEAN_MOTION_DDOT = 0

CCSDS_OMM_VERS = 2.0
CREATION_DATE  = 
ORIGINATOR     = 

OBJECT_NAME    = HTV-X1
OBJECT_ID      = 2025-241A
CENTER_NAME    = EARTH
REF_FRAME      = TEME
TIME_SYSTEM    = UTC
MEAN_ELEMENT_THEORY = SGP/SGP4

EPOCH          = 2026-02-17T04:23:19.361472
MEAN_MOTION    = 15.48657976
ECCENTRICITY   = .00110184
INCLINATION    = 51.6319
RA_OF_ASC_NODE = 173.7204
ARG_OF_PERICENTER = 107.0393
MEAN_ANOMALY   = 253.1803

EPHEMERIS_TYPE = 0
CLASSIFICATION_TYPE = U
NORAD_CAT_ID   = 66174
ELEMENT_SET_NO = 999
REV_AT_EPOCH   = 51
BSTAR          = .18517944E-3
MEAN_MOTION_DOT = .966E-4
MEAN_MOTION_DDOT = 0

CCSDS_OMM_VERS = 2.0
CREATION_DATE  = 
ORIGINATOR     = 

OBJECT_NAME    = SZ-21 MODULE
OBJECT_ID      = 2025-246C
CENTER_NAME    = EARTH
REF_FRAME      = TEME
TIME_SYSTEM    = UTC
MEAN_ELEMENT_THEORY = SGP/SGP4

EPOCH          = 2026-02-17T04:17:16.923840
MEAN_MOTION    = 15.66957917
ECCENTRICITY   = .00019678
INCLINATION    = 41.4766
RA_OF_ASC_NODE = 329.4655
ARG_OF_PERICENTER = 297.4736
MEAN_ANOMALY   = 62.5905

EPHEMERIS_TYPE = 0
CLASSIFICATION_TYPE = U
NORAD_CAT_ID   = 66515
ELEMENT_SET_NO = 999
REV_AT_EPOCH   = 1485
BSTAR          = .34761218E-3
MEAN_MOTION_DOT = .37852E-3
MEAN_MOTION_DDOT = 0

CCSDS_OMM_VERS = 2.0
CREATION_DATE  = 
ORIGINATOR     = 

OBJECT_NAME    = SHENZHOU-22
OBJECT_ID      = 2025-272A
CENTER_NAME    = EARTH
REF_FRAME      = TEME
TIME_SYSTEM    = UTC
MEAN_ELEMENT_THEORY = SGP/SGP4

EPOCH          = 2026-02-17T05:34:10.349472
MEAN_MOTION    = 15.59770251
ECCENTRICITY   = .00041623
INCLINATION    = 41.4683
RA_OF_ASC_NODE = 332.5551
ARG_OF_PERICENTER = 122.3722
MEAN_ANOMALY   = 237.7519

EPHEMERIS_TYPE = 0
CLASSIFICATION_TYPE = U
NORAD_CAT_ID   = 66645
ELEMENT_SET_NO = 999
REV_AT_EPOCH   = 26764
BSTAR          = .35627248E-3
MEAN_MOTION_DOT = .29154E-3
MEAN_MOTION_DDOT = 0

CCSDS_OMM_VERS = 2.0
CREATION_DATE  = 
ORIGINATOR     = 

OBJECT_NAME    = SOYUZ-MS 28
OBJECT_ID      = 2025-275A
CENTER_NAME    = EARTH
REF_FRAME      = TEME
TIME_SYSTEM    = UTC
MEAN_ELEMENT_THEORY = SGP/SGP4

EPOCH          = 2026-02-17T04:23:19.361472
MEAN_MOTION    = 15.48657976
ECCENTRICITY   = .00110184
INCLINATION    = 51.6319
RA_OF_ASC_NODE = 173.7204
ARG_OF_PERICENTER = 107.0393
MEAN_ANOMALY   = 253.1803

EPHEMERIS_TYPE = 0
CLASSIFICATION_TYPE = U
NORAD_CAT_ID   = 66664
ELEMENT_SET_NO = 999
REV_AT_EPOCH   = 128
BSTAR          = .18517944E-3
MEAN_MOTION_DOT = .966E-4
MEAN_MOTION_DDOT = 0

CCSDS_OMM_VERS = 2.0
CREATION_DATE  = 
ORIGINATOR     = 

OBJECT_NAME    = DUPLEX
OBJECT_ID      = 1998-067XS
CENTER_NAME    = EARTH
REF_FRAME      = TEME
TIME_SYSTEM    = UTC
MEAN_ELEMENT_THEORY = SGP/SGP4

EPOCH          = 2026-02-16T15:23:58.421760
MEAN_MOTION    = 15.54741995
ECCENTRICITY   = .0001508
INCLINATION    = 51.6294
RA_OF_ASC_NODE = 174.6104
ARG_OF_PERICENTER = 64.3844
MEAN_ANOMALY   = 295.7303

EPHEMERIS_TYPE = 0
CLASSIFICATION_TYPE = U
NORAD_CAT_ID   = 66906
ELEMENT_SET_NO = 999
REV_AT_EPOCH   = 1185
BSTAR          = .56088E-3
MEAN_MOTION_DOT = .37668E-3
MEAN_MOTION_DDOT = 0

CCSDS_OMM_VERS = 2.0
CREATION_DATE  = 
ORIGINATOR     = 

OBJECT_NAME    = ISS OBJECT XT
OBJECT_ID      = 1998-067XT
CENTER_NAME    = EARTH
REF_FRAME      = TEME
TIME_SYSTEM    = UTC
MEAN_ELEMENT_THEORY = SGP/SGP4

EPOCH          = 2026-02-16T14:07:42.755520
MEAN_MOTION    = 15.63436721
ECCENTRICITY   = .0002478
INCLINATION    = 51.6273
RA_OF_ASC_NODE = 172.7525
ARG_OF_PERICENTER = 318.2214
MEAN_ANOMALY   = 41.8591

EPHEMERIS_TYPE = 0
CLASSIFICATION_TYPE = U
NORAD_CAT_ID   = 66907
ELEMENT_SET_NO = 999
REV_AT_EPOCH   = 1187
BSTAR          = .12603E-2
MEAN_MOTION_DOT = .119926E-2
MEAN_MOTION_DDOT = 0

CCSDS_OMM_VERS = 2.0
CREATION_DATE  = 
ORIGINATOR     = 

OBJECT_NAME    = ISS OBJECT XU
OBJECT_ID      = 1998-067XU
CENTER_NAME    = EARTH
REF_FRAME      = TEME
TIME_SYSTEM    = UTC
MEAN_ELEMENT_THEORY = SGP/SGP4

EPOCH          = 2026-02-16T21:46:49.328832
MEAN_MOTION    = 15.63568790
ECCENTRICITY   = .00024749
INCLINATION    = 51.6262
RA_OF_ASC_NODE = 171.1290
ARG_OF_PERICENTER = 328.0215
MEAN_ANOMALY   = 32.0628

EPHEMERIS_TYPE = 0
CLASSIFICATION_TYPE = U
NORAD_CAT_ID   = 66908
ELEMENT_SET_NO = 999
REV_AT_EPOCH   = 1192
BSTAR          = .13405542E-2
MEAN_MOTION_DOT = .128395E-2
MEAN_MOTION_DDOT = 0

CCSDS_OMM_VERS = 2.0
CREATION_DATE  = 
ORIGINATOR     = 

OBJECT_NAME    = SILVERSAT
OBJECT_ID      = 1998-067XV
CENTER_NAME    = EARTH
REF_FRAME      = TEME
TIME_SYSTEM    = UTC
MEAN_ELEMENT_THEORY = SGP/SGP4

EPOCH          = 2026-02-16T13:19:05.342016
MEAN_MOTION    = 15.65168033
ECCENTRICITY   = .0003274
INCLINATION    = 51.6271
RA_OF_ASC_NODE = 172.5261
ARG_OF_PERICENTER = 318.3444
MEAN_ANOMALY   = 41.7301

EPHEMERIS_TYPE = 0
CLASSIFICATION_TYPE = U
NORAD_CAT_ID   = 66909
ELEMENT_SET_NO = 999
REV_AT_EPOCH   = 1187
BSTAR          = .14211E-2
MEAN_MOTION_DOT = .145375E-2
MEAN_MOTION_DDOT = 0

